60P/Tsuchinshan,e,3.5884,267.5369,216.9640,3.523472,0.1490211,0.53465823,144.4935,08/05.0/2021,2000,g 11.5,6.0
# From MPEC 2015-Q71
61P/Shajn-Schaldach,e,5.9989,162.9755,221.8187,3.687333,0.1391988,0.42393903,298.0217,08/05.0/2021,2000,g  6.0,10.0
# From MPC109147
62P/Tsuchinshan,e,4.7548,69.3184,47.0796,3.355331,0.1603619,0.62873259,220.3888,08/05.0/2021,2000,g  8.0,10.0
# From MPC 84320
63P/Wild,e,19.7282,358.0185,169.0917,5.606958,0.0742357,0.64883214,226.1559,08/05.0/2021,2000,g 10.5,6.0
# From MPEC 2021-F20
64P/Swift-Gehrels,e,8.9499,299.9920,97.0706,4.453524,0.1048693,0.68802240,105.3648,08/05.0/2021,2000,g 13.4,4.0
# From MPEC 2021-F20
65P/Gunn,e,9.1789,62.0162,213.8843,3.886147,0.1286546,0.24935619,178.4842,08/05.0/2021,2000,g 11.2,4.0
# From MPEC 2021-F20
66P/duToit,e,18.6480,21.8240,257.3928,6.067019,0.0659540,0.78667555,77.4258,08/05.0/2021,2000,g 15.0,4.0
# From MPEC 2021-O56
67P/Churyumov-Gerasimenko,e,3.8714,36.3330,22.1287,3.456664,0.1533622,0.64976616,346.3420,08/05.0/2021,2000,g 11.0,4.0
# From MPC 75716
68P/Klemola,e,11.1104,175.0591,153.1469,4.953993,0.0893863,0.63764792,56.7467,08/05.0/2021,2000,g 10.0,4.0
# From MPC114607
69P/Taylor,e,22.0343,104.8245,343.4382,3.887133,0.1286056,0.41313706,112.0040,08/05.0/2021,2000,g  9.5,12.0
# From MPEC 2021-BE3
70P/Kojima,e,6.5982,119.2689,1.8344,3.677173,0.1397761,0.45366021,347.4013,08/05.0/2021,2000,g 11.0,6.0
# From MPC107051
71P/Clark,e,9.4378,59.4134,209.0547,3.138298,0.1772813,0.49392039,265.2329,08/05.0/2021,2000,g  9.8,6.0
# From MPC 89011
72P/Denning-Fujikawa,e,10.9428,26.6926,346.6916,4.310566,0.1101292,0.81845345,285.1159,08/05.0/2021,2000,g 17.5,10.0
# From MPC106348
73P/Schwassmann-Wachmann,e,11.2286,69.6265,199.4715,3.092828,0.1812051,0.68549725,290.1167,08/05.0/2021,2000,g 11.5,6.0
# From MPC106348
73P-T/Schwassmann-Wachmann,e,11.2307,69.6291,199.4530,3.094391,0.1810678,0.68569970,289.8981,08/05.0/2021,2000,g 11.5,6.0
# From MPEC 2021-BE3
74P/Smirnova-Chernykh,e,6.0990,70.6921,109.5928,4.341221,0.1089648,0.14546192,129.2995,08/05.0/2021,2000,g  5.0,6.0
# From MPEC 2021-F20
76P/West-Kohoutek-Ikemura,e,30.4607,84.1149,359.9641,3.472412,0.1523201,0.53815155,98.8489,08/05.0/2021,2000,g 15.5,4.0
# From MPC100283
77P/Longmore,e,24.3187,14.7790,196.8279,3.622055,0.1429788,0.35199541,273.3057,08/05.0/2021,2000,g  7.0,8.0
# From MPEC 2021-O56
78P/Gehrels,e,6.2518,210.5183,192.6363,3.738689,0.1363405,0.46215387,116.5816,08/05.0/2021,2000,g  5.5,8.0
# From MPC 94675
79P/du Toit-Hartley,e,3.1479,280.5316,281.7947,2.942960,0.1952214,0.61883588,206.4158,08/05.0/2021,2000,g 16.0,4.0
# From MPEC 2014-P41
80P/Peters-Hartley,e,29.9289,259.8143,339.2516,4.024341,0.1220849,0.59877539,300.0776,08/05.0/2021,2000,g  9.0,4.0
# From MPC105241
81P/Wild,e,3.2368,136.0980,41.6751,3.451861,0.1536824,0.53704743,283.5069,08/05.0/2021,2000,g  7.0,6.0
# From MPEC 2020-FB5
84P/Giclas,e,7.5517,108.1727,281.5737,3.549152,0.1474067,0.51575538,62.9606,08/05.0/2021,2000,g  9.5,8.0
# From MPC109147
86P/Wild,e,15.4743,72.3586,179.3879,3.602090,0.1441691,0.37238484,333.1051,08/05.0/2021,2000,g 11.0,6.0
# From MPEC 2020-SI8
87P/Bus,e,2.6093,181.6913,25.3554,3.447395,0.1539811,0.39058204,69.5621,08/05.0/2021,2000,g  7.2,10.0
# From MPEC 2021-F20
88P/Howell,e,4.3836,56.6796,235.9063,3.105050,0.1801362,0.56421265,56.2796,08/05.0/2021,2000,g 12.4,4.0
# From MPC100283
89P/Russell,e,12.0694,41.3760,250.3524,3.753914,0.1355119,0.40855962,229.3597,08/05.0/2021,2000,g 11.5,6.0
# From MPC107051
90P/Gehrels,e,9.6476,13.2052,29.0602,6.052414,0.0661929,0.51021945,99.7836,08/05.0/2021,2000,g  8.5,6.0
# From MPEC 2021-O56
91P/Russell,e,14.0837,247.7982,354.9151,3.895634,0.1281849,0.33142894,34.3860,08/05.0/2021,2000,g  7.5,6.0
# From MPEC 2014-J58
92P/Sanguin,e,19.4984,181.3673,163.7562,5.344179,0.0797779,0.66096031,187.0980,08/05.0/2021,2000,g 12.0,6.0
# From NK 2707
93P/Lovas,e,12.2036,339.6485,74.8082,4.382540,0.1074274,0.61266721,173.8130,08/05.0/2021,2000,g  9.0,4.0
# From MPEC 2020-W26
94P/Russell,e,6.1880,70.8583,92.4587,3.507425,0.1500450,0.36493995,261.8138,08/05.0/2021,2000,g  9.0,6.0
# From MPC 75717
95P/Chiron,e,6.9291,209.2773,339.6952,13.70216,0.0194321,0.37710235,181.3943,08/05.0/2021,2000,g  6.5,2.0
# From MPEC 2017-T14
96P/Machholz,e,57.5627,93.9859,14.7432,3.028435,0.1870151,0.96158202,258.2262,08/05.0/2021,2000,g  9.0,4.0
# From MPC 77020
97P/Metcalf-Brewington,e,17.9500,184.0767,229.9320,4.762161,0.0948414,0.46025388,341.5624,08/05.0/2021,2000,g  5.5,6.0
# From MPEC 2013-H38
98P/Takamizawa,e,10.5603,114.7062,157.8883,3.799259,0.1330931,0.56239433,28.2319,08/05.0/2021,2000,g  9.0,8.0
# From MPEC 2021-O56
99P/Kowal,e,4.3390,28.1047,174.9638,6.108898,0.0652769,0.22965723,343.6199,08/05.0/2021,2000,g  4.5,6.0
# From MPEC 2013-O31
100P/Hartley,e,25.5647,37.6970,181.9883,3.432408,0.1549907,0.41230293,302.5008,08/05.0/2021,2000,g  9.0,4.0
# From MPEC 2020-FB5
101P/Chernykh,e,5.0526,116.2284,277.7047,5.803492,0.0704969,0.59600470,40.2083,08/05.0/2021,2000,g 10.0,4.8
# From MPC 86232
102P/Shoemaker,e,25.8849,339.3656,20.5495,3.812884,0.1323804,0.45710100,25.7595,08/05.0/2021,2000,g  6.5,8.0
# From MPEC 2018-HA5
103P/Hartley,e,13.6025,219.7332,181.2823,3.476041,0.1520816,0.69330494,238.5193,08/05.0/2021,2000,g  8.5,8.0
# From MPC100283
104P/Kowal,e,5.7204,207.3780,227.1341,3.206867,0.1716258,0.66544302,332.6887,08/05.0/2021,2000,g 16.0,4.0
# From MPC109147
105P/Singer Brewster,e,9.1701,192.4099,46.4867,3.467540,0.1526413,0.40939681,166.6058,08/05.0/2021,2000,g 11.5,6.0
# From MPEC 2021-O56
106P/Schuster,e,19.5364,48.8859,353.6667,3.762107,0.1350695,0.59367789,358.1403,08/05.0/2021,2000,g 14.0,4.8
# From MPEC 2015-M77
107P/Wilson-Harrington,e,2.7988,266.7888,95.4143,2.625137,0.2317267,0.63160945,270.8573,08/05.0/2021,2000,g  9.0,4.0
# From MPEC 2021-O56
108P/Ciffreo,e,11.4377,50.2922,354.4140,3.737969,0.1363800,0.55583284,355.0785,08/05.0/2021,2000,g  8.0,12.0
# From  105, 420
109P/Swift-Tuttle,e,113.9917,139.0357,152.9214,26.14666,0.0073719,0.96282447,77.1938,08/05.0/2021,2000,g  4.0,6.0
# From MPEC 2020-W26
110P/Hartley,e,11.7072,287.5349,167.4502,3.601627,0.1441969,0.31816680,349.2829,08/05.0/2021,2000,g  1.0,12.0
# From MPC 75718
111P/Helin-Roman-Crockett,e,4.2268,89.7666,0.9866,4.147561,0.1166850,0.10606954,5.8806,08/05.0/2021,2000,g  5.0,8.0
# From MPEC 2021-F20
112P/Urata-Niijima,e,24.1976,31.8346,21.4801,3.525505,0.1488922,0.58993864,80.9962,08/05.0/2021,2000,g 15.3,4.0
# From MPEC 2021-O56
113P/Spitaler,e,5.2926,306.7018,115.4004,3.697033,0.1386513,0.42060142,318.3883,08/05.0/2021,2000,g 13.5,4.0
# From MPEC 2021-N06
114P/Wiseman-Skiff,e,18.2738,271.0488,172.7682,3.545058,0.1476621,0.55477615,84.0147,08/05.0/2021,2000,g 11.5,6.0
# From MPEC 2020-SI8
115P/Maury,e,11.6776,176.0102,120.9763,4.272089,0.1116204,0.51855730,41.4556,08/05.0/2021,2000,g 10.5,6.0
# From MPC106348
116P/Wild,e,3.6033,20.9830,173.3322,3.489995,0.1511704,0.37061308,307.6929,08/05.0/2021,2000,g  2.5,10.0
# From MPEC 2021-O56
117P/Helin-Roman-Alu,e,8.7030,58.8419,222.8723,4.084266,0.1194079,0.25567723,319.8262,08/05.0/2021,2000,g  2.5,8.0
# From MPEC 2021-N06
118P/Shoemaker-Levy,e,10.0963,142.1128,314.5170,3.358052,0.1601670,0.45473048,283.8726,08/05.0/2021,2000,g 12.0,4.0
# From MPEC 2021-O56
119P/Parker-Hartley,e,7.3972,104.6419,321.8168,3.813817,0.1323318,0.38954284,310.8665,08/05.0/2021,2000,g  3.5,8.0
# From MPEC 2020-SI8
120P/Mueller,e,8.4899,358.6738,36.5667,3.961620,0.1249956,0.37452732,11.2283,08/05.0/2021,2000,g 12.0,4.0
# From MPEC 2020-SI8
121P/Shoemaker-Holt,e,20.1631,94.1245,11.4071,4.584494,0.1004077,0.18571301,290.5795,08/05.0/2021,2000,g  6.5,8.0
# From MPC 75718
122P/de Vico,e,84.9771,79.5647,13.0046,17.62599,0.0133191,0.96225403,126.0080,08/05.0/2021,2000,g  7.5,5.2
# From MPEC 2021-F20
123P/West-Hartley,e,15.2887,46.1155,103.9313,3.875265,0.1291968,0.44660824,117.8814,08/05.0/2021,2000,g 12.2,4.0
# From MPEC 2021-F20
124P/Mrkos,e,31.5345,0.3027,184.0474,3.322214,0.1627656,0.50344828,75.6751,08/05.0/2021,2000,g 15.2,4.0
# From MPEC 2015-M77
125P/Spacewatch,e,9.9866,153.1477,87.2399,3.126079,0.1783217,0.51259792,191.4565,08/05.0/2021,2000,g  9.0,4.0
# From MPC 66205
126P/IRAS,e,45.8720,357.8659,356.5314,5.639416,0.0735958,0.69631780,308.5333,08/05.0/2021,2000,g  9.0,4.0
# From MPC 84321
127P/Holt-Olmstead,e,14.2964,13.6296,6.4427,3.452177,0.1536613,0.35993613,302.9973,08/05.0/2021,2000,g 11.0,6.0
# From MPC 89014
128P/Shoemaker-Holt,e,4.3679,214.3001,210.2912,4.491796,0.1035319,0.32084597,172.7627,08/05.0/2021,2000,g  8.5,4.0
# From MPEC 2019-TG9
129P/Shoemaker-Levy,e,3.4422,184.8789,307.7594,4.283952,0.1111571,0.08409226,306.1318,08/05.0/2021,2000,g 11.0,4.0
# From MPC 78188
130P/McNaught-Hughes,e,6.0626,70.2208,246.0215,3.383743,0.1583463,0.46137557,204.2959,08/05.0/2021,2000,g 10.0,6.0
# From MPC102101
131P/Mueller,e,7.3560,214.1547,179.0248,3.680449,0.1395895,0.34401794,128.9223,08/05.0/2021,2000,g 11.0,4.0
# From MPEC 2021-O56
132P/Helin-Roman-Alu,e,5.3825,173.9972,216.3432,3.887355,0.1285946,0.56480217,347.1276,08/05.0/2021,2000,g 11.0,6.0
# From MPC 94676
133P/Elst-Pizarro,e,1.3893,160.1057,131.8487,3.164870,0.1750533,0.15688488,183.4810,08/05.0/2021,2000,g 15.4,2.0
# From MPC 89012
134P/Kowal-Vavrova,e,4.3390,202.0702,18.8884,6.260864,0.0629148,0.58590254,165.8191,08/05.0/2021,2000,g 11.5,4.0
# From MPEC 2021-F20
135P/Shoemaker-Levy,e,6.0622,213.0268,22.3063,3.802753,0.1329098,0.29522118,327.4003,08/05.0/2021,2000,g  7.0,8.0
# From MPEC 2020-W26
136P/Mueller,e,9.4244,137.4489,224.9154,4.193004,0.1147932,0.29287198,216.9394,08/05.0/2021,2000,g 11.0,4.0
# From MPEC 2021-N06
137P/Shoemaker-Levy,e,4.8541,233.0232,141.0424,4.520613,0.1025435,0.57357768,98.9722,08/05.0/2021,2000,g 11.0,4.0
# From MPEC 2016-U66
138P/Shoemaker-Levy,e,10.0908,309.3293,95.5403,3.621949,0.1429850,0.53060622,117.9714,08/05.0/2021,2000,g 15.0,6.0
# From MPEC 2020-HN5
139P/Vaisala-Oterma,e,2.3342,242.1684,165.7168,4.522148,0.1024913,0.24689944,136.7547,08/05.0/2021,2000,g  9.5,4.0
# From MPEC 2015-E14
